{
  "type": "FeatureCollection",
  "features": [
    {
      "type": "Feature",
      "properties": {
        "norad_id": 66909,
        "name": "1998-067XV",
        "group": "last-30-days",
        "lat": -35.715810363148286,
        "lon": 24.792118669786863,
        "alt_km": 415.8110621816322,
        "timestamp": "2025-12-07T03:52:31.205450+00:00",
        "meta_object_name": "1998-067XV",
        "meta_object_id": "1998-067XV",
        "meta_epoch": "2025-12-06T14:31:18.459264",
        "meta_mean_motion": 15.50547779,
        "meta_eccentricity": 0.00052426,
        "meta_inclination": 51.6296,
        "meta_ra_of_asc_node": 172.8258,
        "meta_arg_of_pericenter": 193.8867,
        "meta_mean_anomaly": 166.1979,
        "meta_ephemeris_type": 0,
        "meta_classification_type": "U",
        "meta_norad_cat_id": 66909,
        "meta_element_set_no": 999,
        "meta_rev_at_epoch": 66,
        "meta_bstar": 0.0015899979,
        "meta_mean_motion_dot": 0.00093198,
        "meta_mean_motion_ddot": 0,
        "tle_line1": "1 66909U 98067XV  25340.60507476  .00093198  00000+0  15900-2 0  9995",
        "tle_line2": "2 66909  51.6296 172.8258 0005242 193.8867 166.1979 15.50547779   660"
      },
      "geometry": {
        "type": "Point",
        "coordinates": [
          24.792118669786863,
          -35.715810363148286
        ]
      }
    },
    {
      "type": "Feature",
      "properties": {
        "norad_id": 66910,
        "name": "1998-067XW",
        "group": "last-30-days",
        "lat": -38.65941754263813,
        "lon": 29.38973232743907,
        "alt_km": 415.6818270944914,
        "timestamp": "2025-12-07T03:52:31.205462+00:00",
        "meta_object_name": "1998-067XW",
        "meta_object_id": "1998-067XW",
        "meta_epoch": "2025-12-06T14:30:13.476960",
        "meta_mean_motion": 15.50789302,
        "meta_eccentricity": 0.00061597,
        "meta_inclination": 51.6294,
        "meta_ra_of_asc_node": 172.8206,
        "meta_arg_of_pericenter": 179.5377,
        "meta_mean_anomaly": 180.5619,
        "meta_ephemeris_type": 0,
        "meta_classification_type": "U",
        "meta_norad_cat_id": 66910,
        "meta_element_set_no": 999,
        "meta_rev_at_epoch": 66,
        "meta_bstar": 0.0013604594,
        "meta_mean_motion_dot": 0.0008025,
        "meta_mean_motion_ddot": 0,
        "tle_line1": "1 66910U 98067XW  25340.60432265  .00080250  00000+0  13605-2 0  9995",
        "tle_line2": "2 66910  51.6294 172.8206 0006159 179.5377 180.5619 15.50789302   669"
      },
      "geometry": {
        "type": "Point",
        "coordinates": [
          29.38973232743907,
          -38.65941754263813
        ]
      }
    },
    {
      "type": "Feature",
      "properties": {
        "norad_id": 66911,
        "name": "1998-067XX",
        "group": "last-30-days",
        "lat": -39.05145003035856,
        "lon": 30.054339933606023,
        "alt_km": 415.4774947489368,
        "timestamp": "2025-12-07T03:52:31.205472+00:00",
        "meta_object_name": "1998-067XX",
        "meta_object_id": "1998-067XX",
        "meta_epoch": "2025-12-06T14:30:06.081984",
        "meta_mean_motion": 15.50869311,
        "meta_eccentricity": 0.00060509,
        "meta_inclination": 51.6293,
        "meta_ra_of_asc_node": 172.8204,
        "meta_arg_of_pericenter": 180.1037,
        "meta_mean_anomaly": 179.9952,
        "meta_ephemeris_type": 0,
        "meta_classification_type": "U",
        "meta_norad_cat_id": 66911,
        "meta_element_set_no": 999,
        "meta_rev_at_epoch": 65,
        "meta_bstar": 0.0015610395,
        "meta_mean_motion_dot": 0.00092556,
        "meta_mean_motion_ddot": 0,
        "tle_line1": "1 66911U 98067XX  25340.60423706  .00092556  00000+0  15610-2 0  9996",
        "tle_line2": "2 66911  51.6293 172.8204 0006050 180.1037 179.9952 15.50869311   658"
      },
      "geometry": {
        "type": "Point",
        "coordinates": [
          30.054339933606023,
          -39.05145003035856
        ]
      }
    },
    {
      "type": "Feature",
      "properties": {
        "norad_id": 66912,
        "name": "1998-067XY",
        "group": "last-30-days",
        "lat": -34.34240780131612,
        "lon": 22.84411454852884,
        "alt_km": 416.3901669909246,
        "timestamp": "2025-12-07T03:52:31.205482+00:00",
        "meta_object_name": "1998-067XY",
        "meta_object_id": "1998-067XY",
        "meta_epoch": "2025-12-06T14:31:44.195232",
        "meta_mean_motion": 15.50339462,
        "meta_eccentricity": 0.00052344,
        "meta_inclination": 51.6295,
        "meta_ra_of_asc_node": 172.8274,
        "meta_arg_of_pericenter": 193.0919,
        "meta_mean_anomaly": 166.9935,
        "meta_ephemeris_type": 0,
        "meta_classification_type": "U",
        "meta_norad_cat_id": 66912,
        "meta_element_set_no": 999,
        "meta_rev_at_epoch": 65,
        "meta_bstar": 0.0011669061,
        "meta_mean_motion_dot": 0.00067549,
        "meta_mean_motion_ddot": 0,
        "tle_line1": "1 66912U 98067XY  25340.60537263  .00067549  00000+0  11669-2 0  9995",
        "tle_line2": "2 66912  51.6295 172.8274 0005234 193.0919 166.9935 15.50339462   659"
      },
      "geometry": {
        "type": "Point",
        "coordinates": [
          22.84411454852884,
          -34.34240780131612
        ]
      }
    },
    {
      "type": "Feature",
      "properties": {
        "norad_id": 66913,
        "name": "2025-284A",
        "group": "last-30-days",
        "lat": 4.260191265953526,
        "lon": -43.88605082919942,
        "alt_km": 505.4699456596145,
        "timestamp": "2025-12-07T03:52:31.205495+00:00",
        "meta_object_name": "2025-284A",
        "meta_object_id": "2025-284A",
        "meta_epoch": "2025-12-05T19:30:25.528608",
        "meta_mean_motion": 15.20033669,
        "meta_eccentricity": 0.00128266,
        "meta_inclination": 80.4023,
        "meta_ra_of_asc_node": 138.5488,
        "meta_arg_of_pericenter": 252.3263,
        "meta_mean_anomaly": 107.6565,
        "meta_ephemeris_type": 0,
        "meta_classification_type": "U",
        "meta_norad_cat_id": 66913,
        "meta_element_set_no": 999,
        "meta_rev_at_epoch": 7,
        "meta_bstar": 0.00014555981,
        "meta_mean_motion_dot": 3.163e-05,
        "meta_mean_motion_ddot": 0,
        "tle_line1": "1 66913U 25284A   25339.81279547  .00003163  00000+0  14556-3 0  9997",
        "tle_line2": "2 66913  80.4023 138.5488 0012826 252.3263 107.6565 15.20033669    75"
      },
      "geometry": {
        "type": "Point",
        "coordinates": [
          -43.88605082919942,
          4.260191265953526
        ]
      }
    },
    {
      "type": "Feature",
      "properties": {
        "norad_id": 66915,
        "name": "HULIANWANG DIGUI 14A",
        "group": "last-30-days",
        "lat": 21.39947099362783,
        "lon": 159.22433872791908,
        "alt_km": 875.9453703784184,
        "timestamp": "2025-12-07T03:52:31.205505+00:00",
        "meta_object_name": "HULIANWANG DIGUI 14A",
        "meta_object_id": "2025-285A",
        "meta_epoch": "2025-12-06T08:58:45.410016",
        "meta_mean_motion": 14.06225102,
        "meta_eccentricity": 0.00087698,
        "meta_inclination": 49.9887,
        "meta_ra_of_asc_node": 143.2276,
        "meta_arg_of_pericenter": 217.1051,
        "meta_mean_anomaly": 142.9249,
        "meta_ephemeris_type": 0,
        "meta_classification_type": "U",
        "meta_norad_cat_id": 66915,
        "meta_element_set_no": 999,
        "meta_rev_at_epoch": 1,
        "meta_bstar": 1.8511052e-05,
        "meta_mean_motion_dot": -1.22e-06,
        "meta_mean_motion_ddot": 0,
        "tle_line1": "1 66915U 25285A   25340.37413669 -.00000122  00000+0  18511-4 0  9997",
        "tle_line2": "2 66915  49.9887 143.2276 0008769 217.1051 142.9249 14.06225102    11"
      },
      "geometry": {
        "type": "Point",
        "coordinates": [
          159.22433872791908,
          21.39947099362783
        ]
      }
    },
    {
      "type": "Feature",
      "properties": {
        "norad_id": 66916,
        "name": "HULIANWANG DIGUI 14B",
        "group": "last-30-days",
        "lat": 20.833022666347134,
        "lon": 158.68540162758208,
        "alt_km": 873.8920831876494,
        "timestamp": "2025-12-07T03:52:31.205517+00:00",
        "meta_object_name": "HULIANWANG DIGUI 14B",
        "meta_object_id": "2025-285B",
        "meta_epoch": "2025-12-06T12:23:28.538592",
        "meta_mean_motion": 14.0595389,
        "meta_eccentricity": 0.0008093,
        "meta_inclination": 50.0119,
        "meta_ra_of_asc_node": 142.6984,
        "meta_arg_of_pericenter": 262.9615,
        "meta_mean_anomaly": 97.037,
        "meta_ephemeris_type": 0,
        "meta_classification_type": "U",
        "meta_norad_cat_id": 66916,
        "meta_element_set_no": 999,
        "meta_rev_at_epoch": 3,
        "meta_bstar": 1.7671e-05,
        "meta_mean_motion_dot": -1.23e-06,
        "meta_mean_motion_ddot": 0,
        "tle_line1": "1 66916U 25285B   25340.51630253 -.00000123  00000+0  17671-4 0  9991",
        "tle_line2": "2 66916  50.0119 142.6984 0008093 262.9615  97.0370 14.05953890    34"
      },
      "geometry": {
        "type": "Point",
        "coordinates": [
          158.68540162758208,
          20.833022666347134
        ]
      }
    }
  ]
}